0 FENGYUN 1C DEB
1 30031U 99025NG  13281.86171934  .00005764  00000-0  12979-2 0  9662
2 30031 099.2116 145.7381 0117453 276.9661 212.9913 14.52656964355103
0 FENGYUN 1C DEB
1 30031U 99025NG  13282.53703543  .00009187  00000-0  20586-2 0  9671
2 30031 099.2117 146.4795 0117358 274.9389 144.6231 14.52680004355207
0 FENGYUN 1C DEB
1 30031U 99025NG  13283.36181347  .00008692  00000-0  19485-2 0  9682
2 30031 099.2118 147.3849 0117295 272.4395 137.9606 14.52686745355320
0 FENGYUN 1C DEB
1 30031U 99025NG  13286.19879873  .00007003  00000-0  15723-2 0  9703
2 30031 099.2120 150.4992 0117062 263.8762 214.7148 14.52722745355732
0 FENGYUN 1C DEB
1 30031U 99025NG  13287.36366560  .00007566  00000-0  16971-2 0  9718
2 30031 099.2118 151.7779 0116978 260.3566 186.8026 14.52733441355903
0 FENGYUN 1C DEB
1 30031U 99025NG  13288.53006419  .00011421  00000-0  25523-2 0  9721
2 30031 099.2114 153.0586 0116912 256.8420 166.9629 14.52759328356076
0 FENGYUN 1C DEB
1 30031U 99025NG  13290.18949767  .00009426  00000-0  21088-2 0  9732
2 30031 099.2109 154.8807 0116763 251.8226 205.8242 14.52784357356319
0 FENGYUN 1C DEB
1 30031U 99025NG  13291.55916949  .00008767  00000-0  19616-2 0  9742
2 30031 099.2105 156.3842 0116747 247.6751 169.3546 14.52805278356518
0 FENGYUN 1C DEB
1 30031U 99025NG  13292.88161856  .00008201  00000-0  18354-2 0  9750
2 30031 099.2103 157.8361 0116685 243.6745 245.9987 14.52825792356702
0 FENGYUN 1C DEB
1 30031U 99025NG  13294.18864939  .00009583  00000-0  21412-2 0  9761
2 30031 099.2101 159.2711 0116594 239.7070 242.1035 14.52844829356896
0 FENGYUN 1C DEB
1 30031U 99025NG  13295.22022352  .00010309  00000-0  23020-2 0  9778
2 30031 099.2102 160.4036 0116488 236.5947 237.5471 14.52858676357046
